NORAD_CAT_ID,OBJECT_NAME,OBJECT_TYPE,EPOCH,MEAN_MOTION,ECCENTRICITY,INCLINATION,RA_OF_ASC_NODE,ARG_OF_PERICENTER,MEAN_ANOMALY,BSTAR,MEAN_MOTION_DOT,MEAN_MOTION_DDOT,TLE_LINE0,TLE_LINE1,TLE_LINE2,SEMIMAJOR_AXIS,PERIOD,APOGEE,PERIGEE,DECAYED
49753.0,STARLINK-3200,PAYLOAD,2024-02-29 17:58:09,15.08841257,0.0001331,53.2165,226.3552,86.7387,273.3757,7.6079e-05,9.23e-06,0.0,0 STARLINK-3200,1 49753U 21115AF  24060.74872542  .00000923  00000-0  76079-4 0  9996,2 49753  53.2165 226.3552 0001331  86.7387 273.3757 15.08841257123982,6917.877,95.437,540.662,538.821,0.0
49753.0,STARLINK-3200,PAYLOAD,2024-03-01 14:38:11,15.08838837,0.0001321,53.2165,222.4913,88.3684,271.7459,2.7651e-05,1.52e-06,0.0,0 STARLINK-3200,1 49753U 21115AF  24061.60985089  .00000152  00000-0  27651-4 0  9999,2 49753  53.2165 222.4913 0001321  88.3684 271.7459 15.08838837124114,6917.884,95.438,540.663,538.835,0.0
49753.0,STARLINK-3200,PAYLOAD,2024-03-01 17:48:57,15.08841128,0.000133,53.2166,221.897,90.4088,269.7057,5.1056e-05,5.25e-06,0.0,0 STARLINK-3200,1 49753U 21115AF  24061.74232882  .00000525  00000-0  51056-4 0  9990,2 49753  53.2166 221.8970 0001330  90.4088 269.7057 15.08841128125246,6917.877,95.437,540.662,538.822,0.0
49753.0,STARLINK-3200,PAYLOAD,2024-03-02 14:28:58,15.08839446,0.0001395,53.2174,218.0326,93.3353,266.7798,4.4162e-05,4.15e-06,0.0,0 STARLINK-3200,1 49753U 21115AF  24062.60345160  .00000415  00000-0  44162-4 0  9998,2 49753  53.2174 218.0326 0001395  93.3353 266.7798 15.08839446124266,6917.882,95.438,540.712,538.782,0.0
49753.0,STARLINK-3200,PAYLOAD,2024-03-02 17:39:44,15.08843631,0.0001409,53.2175,217.4383,94.2059,265.9094,7.9282e-05,9.74e-06,0.0,0 STARLINK-3200,1 49753U 21115AF  24062.73592798  .00000974  00000-0  79282-4 0  9994,2 49753  53.2175 217.4383 0001409  94.2059 265.9094 15.08843631124285,6917.869,95.437,540.709,538.76,0.0
49753.0,STARLINK-3200,PAYLOAD,2024-03-03 03:12:03,15.08833146,8e-05,53.2169,215.6525,88.5659,271.5425,2.5108e-05,1.12e-06,0.0,0 STARLINK-3200,1 49753U 21115AF  24063.13337392  .00000112  00000-0  25108-4 0  9998,2 49753  53.2169 215.6525 0000800  88.5659 271.5425 15.08833146125453,6917.901,95.438,540.32,539.213,0.0
49753.0,STARLINK-3200,PAYLOAD,2024-03-03 14:19:46,15.08832162,0.000138,53.2156,213.5695,82.0938,278.0211,-2.378e-05,-6.66e-06,0.0,0 STARLINK-3200,1 49753U 21115AF  24063.59706059 -.00000666  00000-0 -23780-4 0  9998,2 49753  53.2156 213.5695 0001380  82.0938 278.0211 15.08832162124414,6917.904,95.438,540.724,538.815,0.0
49753.0,STARLINK-3200,PAYLOAD,2024-03-03 19:05:54,15.08839286,0.0001316,53.2165,212.677,76.672,283.4419,3.2951e-05,2.37e-06,0.0,0 STARLINK-3200,1 49753U 21115AF  24063.79577534  .00000237  00000-0  32951-4 0  9996,2 49753  53.2165 212.6770 0001316  76.6720 283.4419 15.08839286124442,6917.883,95.438,540.658,538.837,0.0
49753.0,STARLINK-3200,PAYLOAD,2024-03-04 14:10:31,15.08858323,0.0001332,53.2163,209.1087,73.5785,286.5353,0.00012368,1.682e-05,0.0,0 STARLINK-3200,1 49753U 21115AF  24064.59063880  .00001682  00000-0  12368-3 0  9993,2 49753  53.2163 209.1087 0001332  73.5785 286.5353 15.08858323124564,6917.824,95.436,540.611,538.768,0.0
49753.0,STARLINK-3200,PAYLOAD,2024-03-04 15:45:54,15.08860651,0.0001238,53.2163,208.8113,92.1645,267.9489,0.00015119,2.12e-05,0.0,0 STARLINK-3200,1 49753U 21115AF  24064.65687602  .00002120  00000-0  15119-3 0  9999,2 49753  53.2163 208.8113 0001238  92.1645 267.9489 15.08860651125681,6917.817,95.436,540.539,538.826,0.0
49753.0,STARLINK-3200,PAYLOAD,2024-03-05 14:01:19,15.08832616,0.0001423,53.2163,204.6486,78.5456,281.5696,3.6269e-05,2.89e-06,0.0,0 STARLINK-3200,1 49753U 21115AF  24065.58425558  .00000289  00000-0  36269-4 0  9996,2 49753  53.2163 204.6486 0001423  78.5456 281.5696 15.08832616124717,6917.903,95.438,540.752,538.784,0.0
49753.0,STARLINK-3200,PAYLOAD,2024-03-05 18:47:28,15.08836558,0.000123,53.2162,203.7539,94.216,265.8973,-7.1959e-06,-4.02e-06,0.0,0 STARLINK-3200,1 49753U 21115AF  24065.78297368 -.00000402  00000-0 -71959-5 0  9999,2 49753  53.2162 203.7539 0001230  94.2160 265.8973 15.08836558125856,6917.891,95.438,540.607,538.905,0.0
49753.0,STARLINK-3200,PAYLOAD,2024-03-06 13:52:06,15.08845002,0.0001562,53.2172,200.1863,103.2334,256.8833,-4.6068e-05,-1.021e-05,0.0,0 STARLINK-3200,1 49753U 21115AF  24066.57784979 -.00001021  00000-0 -46068-4 0  9996,2 49753  53.2172 200.1863 0001562 103.2334 256.8833 15.08845002124869,6917.865,95.437,540.811,538.65,0.0
49753.0,STARLINK-3200,PAYLOAD,2024-03-07 15:18:17,15.08834091,0.0001417,53.2161,195.4285,96.9828,263.1326,0.00021201,3.087e-05,0.0,0 STARLINK-3200,1 49753U 21115AF  24067.63770294  .00003087  00000-0  21201-3 0  9992,2 49753  53.2161 195.4285 0001417  96.9828 263.1326 15.08834091125029,6917.898,95.438,540.744,538.783,0.0
49753.0,STARLINK-3200,PAYLOAD,2024-03-08 11:58:17,15.08848413,0.0001378,53.2163,191.5649,96.9121,263.2028,0.00015936,2.25e-05,0.0,0 STARLINK-3200,1 49753U 21115AF  24068.49881446  .00002250  00000-0  15936-3 0  9998,2 49753  53.2163 191.5649 0001378  96.9121 263.2028 15.08848413126264,6917.855,95.437,540.673,538.766,0.0
49753.0,STARLINK-3200,PAYLOAD,2024-03-08 15:09:03,15.08854759,0.000151,53.2173,190.9718,99.3598,260.7565,0.00031039,4.657e-05,0.0,0 STARLINK-3200,1 49753U 21115AF  24068.63129124  .00004657  00000-0  31039-3 0  9997,2 49753  53.2173 190.9718 0001510  99.3598 260.7565 15.08854759125175,6917.835,95.437,540.745,538.656,0.0
49753.0,STARLINK-3200,PAYLOAD,2024-03-09 11:49:05,15.08834116,0.0001436,53.2167,187.1053,85.8524,274.2632,-2.1546e-06,-3.22e-06,0.0,0 STARLINK-3200,1 49753U 21115AF  24069.49242022 -.00000322  00000-0 -21546-5 0  9996,2 49753  53.2167 187.1053 0001436  85.8524 274.2632 15.08834116126412,6917.898,95.438,540.757,538.77,0.0
49753.0,STARLINK-3200,PAYLOAD,2024-03-09 14:59:51,15.08835208,0.0001407,53.2169,186.5117,91.9834,268.1319,3.5043e-05,2.7e-06,0.0,0 STARLINK-3200,1 49753U 21115AF  24069.62489955  .00000270  00000-0  35043-4 0  9995,2 49753  53.2169 186.5117 0001407  91.9834 268.1319 15.08835208125324,6917.895,95.438,540.733,538.787,0.0
49753.0,STARLINK-3200,PAYLOAD,2024-03-10 11:39:52,15.08839143,0.0001412,53.2165,182.6454,86.5073,273.6081,-7.332e-05,-1.455e-05,0.0,0 STARLINK-3200,1 49753U 21115AF  24070.48601914 -.00001455  00000-0 -73320-4 0  9990,2 49753  53.2165 182.6454 0001412  86.5073 273.6081 15.08839143125455,6917.883,95.438,540.725,538.771,0.0
49753.0,STARLINK-3200,PAYLOAD,2024-03-11 00:22:57,15.08842025,0.0001004,53.2159,180.2661,69.801,290.309,0.00014713,2.055e-05,0.0,0 STARLINK-3200,1 49753U 21115AF  24071.01593840  .00002055  00000-0  14713-3 0  9993,2 49753  53.2159 180.2661 0001004  69.8010 290.3090 15.08842025126645,6917.874,95.437,540.434,539.045,0.0
49753.0,STARLINK-3200,PAYLOAD,2024-03-11 11:30:39,15.08841286,0.0001611,53.2159,178.1841,81.5722,278.5453,0.00022489,3.293e-05,0.0,0 STARLINK-3200,1 49753U 21115AF  24071.47962052  .00003293  00000-0  22489-3 0  9992,2 49753  53.2159 178.1841 0001611  81.5722 278.5453 15.08841286125600,6917.876,95.437,540.856,538.627,0.0
49753.0,STARLINK-3200,PAYLOAD,2024-03-12 11:21:26,15.08839532,0.0001826,53.216,173.7205,118.0596,242.0581,0.00023282,3.419e-05,0.0,0 STARLINK-3200,1 49753U 21115AF  24072.47321930  .00003419  00000-0  23282-3 0  9999,2 49753  53.2160 173.7205 0001826 118.0596 242.0581 15.08839532126868,6917.882,95.438,541.01,538.484,0.0
49753.0,STARLINK-3200,PAYLOAD,2024-03-13 12:47:36,15.08845585,0.0001527,53.215,168.9647,89.7249,270.3918,0.00011705,1.576e-05,0.0,0 STARLINK-3200,1 49753U 21115AF  24073.53305841  .00001576  00000-0  11705-3 0  9999,2 49753  53.2150 168.9647 0001527  89.7249 270.3918 15.08845585127022,6917.863,95.437,540.785,538.672,0.0
49753.0,STARLINK-3200,PAYLOAD,2024-03-14 11:03:00,15.08845947,0.0001517,53.2159,164.8018,91.8062,268.3103,0.00015445,2.171e-05,0.0,0 STARLINK-3200,1 49753U 21115AF  24074.46041772  .00002171  00000-0  15445-3 0  9999,2 49753  53.2159 164.8018 0001517  91.8062 268.3103 15.08845947126051,6917.862,95.437,540.777,538.678,0.0
49753.0,STARLINK-3200,PAYLOAD,2024-03-15 12:29:10,15.08837101,0.0001652,53.2177,160.0444,95.0214,265.0967,1.0337e-05,-1.24e-06,0.0,0 STARLINK-3200,1 49753U 21115AF  24075.52026406 -.00000124  00000-0  10337-4 0  9997,2 49753  53.2177 160.0444 0001652  95.0214 265.0967 15.08837101127323,6917.889,95.438,540.897,538.611,0.0
49753.0,STARLINK-3200,PAYLOAD,2024-03-16 12:19:58,15.08834755,0.0001686,53.2178,155.584,84.1728,275.9456,6.0414e-05,6.73e-06,0.0,0 STARLINK-3200,1 49753U 21115AF  24076.51386735  .00000673  00000-0  60414-4 0  9990,2 49753  53.2178 155.5840 0001686  84.1728 275.9456 15.08834755126367,6917.896,95.438,540.928,538.595,0.0
49753.0,STARLINK-3200,PAYLOAD,2024-03-17 10:35:22,15.08836593,0.000164,53.2173,151.421,90.0134,270.1046,0.0001002,1.307e-05,0.0,0 STARLINK-3200,1 49753U 21115AF  24077.44122755  .00001307  00000-0  10020-3 0  9995,2 49753  53.2173 151.4210 0001640  90.0134 270.1046 15.08836593127618,6917.891,95.438,540.89,538.621,0.0
49753.0,STARLINK-3200,PAYLOAD,2024-03-18 12:01:32,15.08836268,0.0001503,53.2164,146.6643,91.0397,269.0767,3.2746e-05,2.33e-06,0.0,0 STARLINK-3200,1 49753U 21115AF  24078.50107351  .00000233  00000-0  32746-4 0  9995,2 49753  53.2164 146.6643 0001503  91.0397 269.0767 15.08836268127777,6917.892,95.438,540.797,538.717,0.0
49753.0,STARLINK-3200,PAYLOAD,2024-03-19 11:52:18,15.08848922,0.0001595,53.2164,142.2041,82.8412,277.2762,0.00018518,2.661e-05,0.0,0 STARLINK-3200,1 49753U 21115AF  24079.49466297  .00002661  00000-0  18518-3 0  9998,2 49753  53.2164 142.2041 0001595  82.8412 277.2762 15.08848922127921,6917.853,95.437,540.822,538.615,0.0
49753.0,STARLINK-3200,PAYLOAD,2024-03-20 10:07:43,15.08843617,0.0001656,53.217,138.0398,82.3157,277.8024,0.00010212,1.338e-05,0.0,0 STARLINK-3200,1 49753U 21115AF  24080.42202841  .00001338  00000-0  10212-3 0  9999,2 49753  53.2170 138.0398 0001656  82.3157 277.8024 15.08843617128064,6917.869,95.437,540.88,538.589,0.0
